ELYSIUM STAR 2 & LFF    
1 43760U 18099C   24289.46412153  .00203047  00000+0  35399-2 0  9994
2 43760  97.4977 359.1927 0005641 212.8478 147.2423 15.49971004321682
